{
  "type": "FeatureCollection",
  "features": [
    {
      "type": "Feature",
      "properties": {
        "norad_id": 34350,
        "name": "IRIDIUM 33 DEB",
        "group": "iridium-33-debris",
        "lat": -42.47856257990998,
        "lon": -178.25081573945732,
        "alt_km": 755.3730562853543,
        "timestamp": "2025-12-22T22:44:21.363547+00:00",
        "meta_object_name": "IRIDIUM 33 DEB",
        "meta_object_id": "1997-051ES",
        "meta_epoch": "2025-12-22T12:19:49.336608",
        "meta_mean_motion": 14.45408788,
        "meta_eccentricity": 0.0023434,
        "meta_inclination": 86.3272,
        "meta_ra_of_asc_node": 358.5656,
        "meta_arg_of_pericenter": 105.2385,
        "meta_mean_anomaly": 21.6906,
        "meta_ephemeris_type": 0,
        "meta_classification_type": "U",
        "meta_norad_cat_id": 34350,
        "meta_element_set_no": 999,
        "meta_rev_at_epoch": 88434,
        "meta_bstar": 0.00030728389,
        "meta_mean_motion_dot": 1.104e-05,
        "meta_mean_motion_ddot": 0,
        "tle_line1": "1 34350U 97051ES  25356.51376547  .00001104  00000+0  30728-3 0  9994",
        "tle_line2": "2 34350  86.3272 358.5656 0023434 105.2385  21.6906 14.45408788884343"
      },
      "geometry": {
        "type": "Point",
        "coordinates": [
          -178.25081573945732,
          -42.47856257990998
        ]
      }
    },
    {
      "type": "Feature",
      "properties": {
        "norad_id": 34366,
        "name": "IRIDIUM 33 DEB",
        "group": "iridium-33-debris",
        "lat": 30.255866943070437,
        "lon": -137.24963097395653,
        "alt_km": 698.507005914068,
        "timestamp": "2025-12-22T22:44:21.363558+00:00",
        "meta_object_name": "IRIDIUM 33 DEB",
        "meta_object_id": "1997-051FJ",
        "meta_epoch": "2025-12-22T10:47:10.372704",
        "meta_mean_motion": 14.54128755,
        "meta_eccentricity": 0.00230356,
        "meta_inclination": 86.3686,
        "meta_ra_of_asc_node": 45.09,
        "meta_arg_of_pericenter": 109.4758,
        "meta_mean_anomaly": 314.4093,
        "meta_ephemeris_type": 0,
        "meta_classification_type": "U",
        "meta_norad_cat_id": 34366,
        "meta_element_set_no": 999,
        "meta_rev_at_epoch": 88323,
        "meta_bstar": 0.000894432,
        "meta_mean_motion_dot": 3.813e-05,
        "meta_mean_motion_ddot": 0,
        "tle_line1": "1 34366U 97051FJ  25356.44942561  .00003813  00000+0  89443-3 0  9995",
        "tle_line2": "2 34366  86.3686  45.0900 0023035 109.4758 314.4093 14.54128755883236"
      },
      "geometry": {
        "type": "Point",
        "coordinates": [
          -137.24963097395653,
          30.255866943070437
        ]
      }
    },
    {
      "type": "Feature",
      "properties": {
        "norad_id": 34375,
        "name": "IRIDIUM 33 DEB",
        "group": "iridium-33-debris",
        "lat": -1.3115271318426178,
        "lon": -1.3319572483854811,
        "alt_km": 829.8301886437421,
        "timestamp": "2025-12-22T22:44:21.363569+00:00",
        "meta_object_name": "IRIDIUM 33 DEB",
        "meta_object_id": "1997-051FT",
        "meta_epoch": "2025-12-22T12:02:26.342592",
        "meta_mean_motion": 14.18009533,
        "meta_eccentricity": 0.01037059,
        "meta_inclination": 86.4323,
        "meta_ra_of_asc_node": 178.7659,
        "meta_arg_of_pericenter": 96.2041,
        "meta_mean_anomaly": 329.6113,
        "meta_ephemeris_type": 0,
        "meta_classification_type": "U",
        "meta_norad_cat_id": 34375,
        "meta_element_set_no": 999,
        "meta_rev_at_epoch": 86850,
        "meta_bstar": 0.00038502204,
        "meta_mean_motion_dot": 8.51e-06,
        "meta_mean_motion_ddot": 0,
        "tle_line1": "1 34375U 97051FT  25356.50169378  .00000851  00000+0  38502-3 0  9998",
        "tle_line2": "2 34375  86.4323 178.7659 0103705  96.2041 329.6113 14.18009533868507"
      },
      "geometry": {
        "type": "Point",
        "coordinates": [
          -1.3319572483854811,
          -1.3115271318426178
        ]
      }
    },
    {
      "type": "Feature",
      "properties": {
        "norad_id": 34376,
        "name": "IRIDIUM 33 DEB",
        "group": "iridium-33-debris",
        "lat": 29.726888582324868,
        "lon": 4.068744920334963,
        "alt_km": 687.5630764109574,
        "timestamp": "2025-12-22T22:44:21.363579+00:00",
        "meta_object_name": "IRIDIUM 33 DEB",
        "meta_object_id": "1997-051FU",
        "meta_epoch": "2025-12-22T11:06:35.989056",
        "meta_mean_motion": 14.62691477,
        "meta_eccentricity": 0.00282378,
        "meta_inclination": 86.2977,
        "meta_ra_of_asc_node": 2.1677,
        "meta_arg_of_pericenter": 134.6702,
        "meta_mean_anomaly": 225.6818,
        "meta_ephemeris_type": 0,
        "meta_classification_type": "U",
        "meta_norad_cat_id": 34376,
        "meta_element_set_no": 999,
        "meta_rev_at_epoch": 88149,
        "meta_bstar": 0.001527068,
        "meta_mean_motion_dot": 7.84e-05,
        "meta_mean_motion_ddot": 0,
        "tle_line1": "1 34376U 97051FU  25356.46291654  .00007840  00000+0  15271-2 0  9999",
        "tle_line2": "2 34376  86.2977   2.1677 0028237 134.6702 225.6818 14.62691477881491"
      },
      "geometry": {
        "type": "Point",
        "coordinates": [
          4.068744920334963,
          29.726888582324868
        ]
      }
    },
    {
      "type": "Feature",
      "properties": {
        "norad_id": 34486,
        "name": "IRIDIUM 33 DEB",
        "group": "iridium-33-debris",
        "lat": 31.488588940235704,
        "lon": 9.526061186743402,
        "alt_km": 570.8435751675433,
        "timestamp": "2025-12-22T22:44:21.363590+00:00",
        "meta_object_name": "IRIDIUM 33 DEB",
        "meta_object_id": "1997-051GB",
        "meta_epoch": "2025-12-22T11:56:52.779840",
        "meta_mean_motion": 14.9620636,
        "meta_eccentricity": 0.00139165,
        "meta_inclination": 86.3926,
        "meta_ra_of_asc_node": 7.5191,
        "meta_arg_of_pericenter": 84.4454,
        "meta_mean_anomaly": 47.0404,
        "meta_ephemeris_type": 0,
        "meta_classification_type": "U",
        "meta_norad_cat_id": 34486,
        "meta_element_set_no": 999,
        "meta_rev_at_epoch": 89132,
        "meta_bstar": 0.002364133,
        "meta_mean_motion_dot": 0.00026794,
        "meta_mean_motion_ddot": 0,
        "tle_line1": "1 34486U 97051GB  25356.49783310  .00026794  00000+0  23641-2 0  9998",
        "tle_line2": "2 34486  86.3926   7.5191 0013916  84.4454  47.0404 14.96206360891322"
      },
      "geometry": {
        "type": "Point",
        "coordinates": [
          9.526061186743402,
          31.488588940235704
        ]
      }
    },
    {
      "type": "Feature",
      "properties": {
        "norad_id": 34487,
        "name": "IRIDIUM 33 DEB",
        "group": "iridium-33-debris",
        "lat": -86.3371399508884,
        "lon": -84.48488582963938,
        "alt_km": 778.8327497166974,
        "timestamp": "2025-12-22T22:44:21.363600+00:00",
        "meta_object_name": "IRIDIUM 33 DEB",
        "meta_object_id": "1997-051GC",
        "meta_epoch": "2025-12-22T12:14:23.193024",
        "meta_mean_motion": 14.43228274,
        "meta_eccentricity": 0.00332296,
        "meta_inclination": 86.3429,
        "meta_ra_of_asc_node": 8.1704,
        "meta_arg_of_pericenter": 97.9681,
        "meta_mean_anomaly": 60.3024,
        "meta_ephemeris_type": 0,
        "meta_classification_type": "U",
        "meta_norad_cat_id": 34487,
        "meta_element_set_no": 999,
        "meta_rev_at_epoch": 88389,
        "meta_bstar": 0.00017391804,
        "meta_mean_motion_dot": 6.09e-06,
        "meta_mean_motion_ddot": 0,
        "tle_line1": "1 34487U 97051GC  25356.50999066  .00000609  00000+0  17392-3 0  9992",
        "tle_line2": "2 34487  86.3429   8.1704 0033229  97.9681  60.3024 14.43228274883897"
      },
      "geometry": {
        "type": "Point",
        "coordinates": [
          -84.48488582963938,
          -86.3371399508884
        ]
      }
    },
    {
      "type": "Feature",
      "properties": {
        "norad_id": 34488,
        "name": "IRIDIUM 33 DEB",
        "group": "iridium-33-debris",
        "lat": -25.501793814241857,
        "lon": 122.50469776401886,
        "alt_km": 484.0746211357837,
        "timestamp": "2025-12-22T22:44:21.363611+00:00",
        "meta_object_name": "IRIDIUM 33 DEB",
        "meta_object_id": "1997-051GD",
        "meta_epoch": "2025-12-20T21:13:54.490080",
        "meta_mean_motion": 15.31302202,
        "meta_eccentricity": 0.0010948,
        "meta_inclination": 86.3254,
        "meta_ra_of_asc_node": 301.7725,
        "meta_arg_of_pericenter": 38.0894,
        "meta_mean_anomaly": 322.1127,
        "meta_ephemeris_type": 0,
        "meta_classification_type": "U",
        "meta_norad_cat_id": 34488,
        "meta_element_set_no": 999,
        "meta_rev_at_epoch": 89364,
        "meta_bstar": 0.0030791,
        "meta_mean_motion_dot": 0.00094223,
        "meta_mean_motion_ddot": 0,
        "tle_line1": "1 34488U 97051GD  25354.88465845  .00094223  00000+0  30791-2 0  9997",
        "tle_line2": "2 34488  86.3254 301.7725 0010948  38.0894 322.1127 15.31302202893643"
      },
      "geometry": {
        "type": "Point",
        "coordinates": [
          122.50469776401886,
          -25.501793814241857
        ]
      }
    }
  ]
}